{
  "type": "FeatureCollection",
  "features": [
    {
      "type": "Feature",
      "properties": {
        "name": "Bảo tàng Lịch sử Quốc gia",
        "category": "Museum",
        "rating": 4.6
      },
      "geometry": {
        "type": "Point",
        "coordinates": [
          105.8595,
          21.0252
        ]
      }
    },
    {
      "type": "Feature",
      "properties": {
        "name": "Bảo tàng Mỹ thuật Việt Nam",
        "category": "Museum",
        "rating": 4.7
      },
      "geometry": {
        "type": "Point",
        "coordinates": [
          105.8347,
          21.031
        ]
      }
    },
    {
      "type": "Feature",
      "properties": {
        "name": "Bảo tàng Lịch sử Quân sự Việt Nam",
        "category": "Museum",
        "rating": 4.5
      },
      "geometry": {
        "type": "Point",
        "coordinates": [
          105.7557,
          21.0086
        ]
      }
    },
    {
      "type": "Feature",
      "properties": {
        "name": "Bảo tàng Dân tộc học Việt Nam",
        "category": "Museum",
        "rating": 4.6
      },
      "geometry": {
        "type": "Point",
        "coordinates": [
          105.7987,
          21.0405
        ]
      }
    },
    {
      "type": "Feature",
      "properties": {
        "name": "Hồ Hoàn Kiếm",
        "category": "Nature",
        "rating": 4.9
      },
      "geometry": {
        "type": "Point",
        "coordinates": [
          105.8524,
          21.0287
        ]
      }
    }
  ]
}