{
"type": "FeatureCollection",
"name": "hanoi_museums_top",
"crs": { "type": "name", "properties": { "name": "urn:ogc:def:crs:OGC:1.3:CRS84" } },
"features": [
    { "type": "Feature", "properties": { "name": "Bảo tàng Lịch sử Quốc gia", "type": "Museum", "rating": 4.7 }, "geometry": { "type": "Point", "coordinates": [ 105.8583, 21.0253 ] } },
    { "type": "Feature", "properties": { "name": "Bảo tàng Dân tộc học Việt Nam", "type": "Museum", "rating": 4.6 }, "geometry": { "type": "Point", "coordinates": [ 105.7988, 21.0406 ] } },
    { "type": "Feature", "properties": { "name": "Bảo tàng Hà Nội", "type": "Museum", "rating": 4.8 }, "geometry": { "type": "Point", "coordinates": [ 105.7792, 21.0084 ] } }
]
}
