{
"type": "FeatureCollection",
"name": "gps_trajectory",
"crs": { "type": "name", "properties": { "name": "urn:ogc:def:crs:OGC:1.3:CRS84" } },
"features": [
{ "type": "Feature", "properties": { "record": 1, "time": "1900-01-01T01:00:00", "latitude": 21.073591666666669, "longitude": 105.77632166666666, "satellites": 9, "altitude_m": 15.0 }, "geometry": { "type": "Point", "coordinates": [ 105.776321666666661, 21.073591666666669 ] } },
{ "type": "Feature", "properties": { "record": 2, "time": "1900-01-01T01:00:10", "latitude": 21.073641666666671, "longitude": 105.77637166666666, "satellites": 9, "altitude_m": 15.0 }, "geometry": { "type": "Point", "coordinates": [ 105.776371666666662, 21.073641666666671 ] } },
{ "type": "Feature", "properties": { "record": 3, "time": "1900-01-01T01:00:20", "latitude": 21.073691666666665, "longitude": 105.77642166666668, "satellites": 9, "altitude_m": 15.0 }, "geometry": { "type": "Point", "coordinates": [ 105.776421666666678, 21.073691666666665 ] } },
{ "type": "Feature", "properties": { "record": 4, "time": "1900-01-01T01:00:30", "latitude": 21.073741666666667, "longitude": 105.77647166666665, "satellites": 9, "altitude_m": 15.0 }, "geometry": { "type": "Point", "coordinates": [ 105.776471666666652, 21.073741666666667 ] } },
{ "type": "Feature", "properties": { "record": 5, "time": "1900-01-01T01:00:40", "latitude": 21.073791666666661, "longitude": 105.77652166666667, "satellites": 9, "altitude_m": 15.0 }, "geometry": { "type": "Point", "coordinates": [ 105.776521666666667, 21.073791666666661 ] } },
{ "type": "Feature", "properties": { "record": 6, "time": "1900-01-01T01:30:50", "latitude": 21.06634, "longitude": 105.77629333333334, "satellites": 9, "altitude_m": 15.0 }, "geometry": { "type": "Point", "coordinates": [ 105.776293333333342, 21.06634 ] } },
{ "type": "Feature", "properties": { "record": 7, "time": "1900-01-01T01:31:00", "latitude": 21.06639, "longitude": 105.77634333333332, "satellites": 9, "altitude_m": 15.0 }, "geometry": { "type": "Point", "coordinates": [ 105.776343333333315, 21.06639 ] } },
{ "type": "Feature", "properties": { "record": 8, "time": "1900-01-01T01:31:10", "latitude": 21.06644, "longitude": 105.77639333333333, "satellites": 9, "altitude_m": 15.0 }, "geometry": { "type": "Point", "coordinates": [ 105.776393333333331, 21.06644 ] } },
{ "type": "Feature", "properties": { "record": 9, "time": "1900-01-01T01:31:20", "latitude": 21.06649, "longitude": 105.77644333333335, "satellites": 9, "altitude_m": 15.0 }, "geometry": { "type": "Point", "coordinates": [ 105.776443333333347, 21.06649 ] } },
{ "type": "Feature", "properties": { "record": 10, "time": "1900-01-01T01:31:30", "latitude": 21.06654, "longitude": 105.77649333333332, "satellites": 9, "altitude_m": 15.0 }, "geometry": { "type": "Point", "coordinates": [ 105.77649333333332, 21.06654 ] } },
{ "type": "Feature", "properties": { "record": 11, "time": "1900-01-01T02:01:40", "latitude": 21.076233333333334, "longitude": 105.76820166666667, "satellites": 9, "altitude_m": 15.0 }, "geometry": { "type": "Point", "coordinates": [ 105.76820166666667, 21.076233333333334 ] } },
{ "type": "Feature", "properties": { "record": 12, "time": "1900-01-01T02:01:50", "latitude": 21.076283333333336, "longitude": 105.76825166666667, "satellites": 9, "altitude_m": 15.0 }, "geometry": { "type": "Point", "coordinates": [ 105.768251666666671, 21.076283333333336 ] } },
{ "type": "Feature", "properties": { "record": 13, "time": "1900-01-01T02:02:00", "latitude": 21.076333333333331, "longitude": 105.76830166666666, "satellites": 9, "altitude_m": 15.0 }, "geometry": { "type": "Point", "coordinates": [ 105.768301666666659, 21.076333333333331 ] } },
{ "type": "Feature", "properties": { "record": 14, "time": "1900-01-01T02:02:10", "latitude": 21.076383333333336, "longitude": 105.76835166666666, "satellites": 9, "altitude_m": 15.0 }, "geometry": { "type": "Point", "coordinates": [ 105.768351666666661, 21.076383333333336 ] } },
{ "type": "Feature", "properties": { "record": 15, "time": "1900-01-01T02:02:20", "latitude": 21.07643333333333, "longitude": 105.76840166666668, "satellites": 9, "altitude_m": 15.0 }, "geometry": { "type": "Point", "coordinates": [ 105.768401666666676, 21.07643333333333 ] } },
{ "type": "Feature", "properties": { "record": 16, "time": "1900-01-01T02:32:30", "latitude": 21.070201666666669, "longitude": 105.77620833333334, "satellites": 10, "altitude_m": 15.0 }, "geometry": { "type": "Point", "coordinates": [ 105.776208333333344, 21.070201666666669 ] } },
{ "type": "Feature", "properties": { "record": 17, "time": "1900-01-01T02:32:40", "latitude": 21.070251666666664, "longitude": 105.77625833333335, "satellites": 10, "altitude_m": 15.0 }, "geometry": { "type": "Point", "coordinates": [ 105.776258333333345, 21.070251666666664 ] } },
{ "type": "Feature", "properties": { "record": 18, "time": "1900-01-01T02:32:50", "latitude": 21.070301666666669, "longitude": 105.77630833333333, "satellites": 10, "altitude_m": 15.0 }, "geometry": { "type": "Point", "coordinates": [ 105.776308333333333, 21.070301666666669 ] } },
{ "type": "Feature", "properties": { "record": 19, "time": "1900-01-01T02:33:00", "latitude": 21.070351666666671, "longitude": 105.77635833333333, "satellites": 10, "altitude_m": 15.0 }, "geometry": { "type": "Point", "coordinates": [ 105.776358333333334, 21.070351666666671 ] } },
{ "type": "Feature", "properties": { "record": 20, "time": "1900-01-01T02:33:10", "latitude": 21.070401666666665, "longitude": 105.77640833333335, "satellites": 10, "altitude_m": 15.0 }, "geometry": { "type": "Point", "coordinates": [ 105.77640833333335, 21.070401666666665 ] } },
{ "type": "Feature", "properties": { "record": 21, "time": "1900-01-01T03:03:20", "latitude": 21.067908333333335, "longitude": 105.77731, "satellites": 10, "altitude_m": 15.0 }, "geometry": { "type": "Point", "coordinates": [ 105.77731, 21.067908333333335 ] } },
{ "type": "Feature", "properties": { "record": 22, "time": "1900-01-01T03:03:30", "latitude": 21.06795833333333, "longitude": 105.77736, "satellites": 10, "altitude_m": 15.0 }, "geometry": { "type": "Point", "coordinates": [ 105.77736, 21.06795833333333 ] } },
{ "type": "Feature", "properties": { "record": 23, "time": "1900-01-01T03:03:40", "latitude": 21.068008333333335, "longitude": 105.77741, "satellites": 10, "altitude_m": 15.0 }, "geometry": { "type": "Point", "coordinates": [ 105.77741, 21.068008333333335 ] } },
{ "type": "Feature", "properties": { "record": 24, "time": "1900-01-01T03:03:50", "latitude": 21.068058333333337, "longitude": 105.77746, "satellites": 10, "altitude_m": 15.0 }, "geometry": { "type": "Point", "coordinates": [ 105.77746, 21.068058333333337 ] } },
{ "type": "Feature", "properties": { "record": 25, "time": "1900-01-01T03:04:00", "latitude": 21.068108333333331, "longitude": 105.77751, "satellites": 10, "altitude_m": 15.0 }, "geometry": { "type": "Point", "coordinates": [ 105.77751, 21.068108333333331 ] } },
{ "type": "Feature", "properties": { "record": 26, "time": "1900-01-01T03:34:10", "latitude": 21.066683333333337, "longitude": 105.773915, "satellites": 9, "altitude_m": 15.0 }, "geometry": { "type": "Point", "coordinates": [ 105.773915, 21.066683333333337 ] } },
{ "type": "Feature", "properties": { "record": 27, "time": "1900-01-01T03:34:20", "latitude": 21.066733333333332, "longitude": 105.773965, "satellites": 9, "altitude_m": 15.0 }, "geometry": { "type": "Point", "coordinates": [ 105.773965, 21.066733333333332 ] } },
{ "type": "Feature", "properties": { "record": 28, "time": "1900-01-01T03:34:30", "latitude": 21.066783333333333, "longitude": 105.774015, "satellites": 9, "altitude_m": 15.0 }, "geometry": { "type": "Point", "coordinates": [ 105.774015, 21.066783333333333 ] } },
{ "type": "Feature", "properties": { "record": 29, "time": "1900-01-01T03:34:40", "latitude": 21.066833333333339, "longitude": 105.774065, "satellites": 9, "altitude_m": 15.0 }, "geometry": { "type": "Point", "coordinates": [ 105.774065, 21.066833333333339 ] } },
{ "type": "Feature", "properties": { "record": 30, "time": "1900-01-01T03:34:50", "latitude": 21.066883333333333, "longitude": 105.774115, "satellites": 9, "altitude_m": 15.0 }, "geometry": { "type": "Point", "coordinates": [ 105.774115, 21.066883333333333 ] } },
{ "type": "Feature", "properties": { "record": 31, "time": "1900-01-01T04:05:00", "latitude": 21.071835, "longitude": 105.777725, "satellites": 7, "altitude_m": 15.0 }, "geometry": { "type": "Point", "coordinates": [ 105.777725, 21.071835 ] } },
{ "type": "Feature", "properties": { "record": 32, "time": "1900-01-01T04:05:10", "latitude": 21.071885, "longitude": 105.777775, "satellites": 7, "altitude_m": 15.0 }, "geometry": { "type": "Point", "coordinates": [ 105.777775, 21.071885 ] } },
{ "type": "Feature", "properties": { "record": 33, "time": "1900-01-01T04:05:20", "latitude": 21.071935, "longitude": 105.777825, "satellites": 7, "altitude_m": 15.0 }, "geometry": { "type": "Point", "coordinates": [ 105.777825, 21.071935 ] } },
{ "type": "Feature", "properties": { "record": 34, "time": "1900-01-01T04:05:30", "latitude": 21.071985, "longitude": 105.777875, "satellites": 7, "altitude_m": 15.0 }, "geometry": { "type": "Point", "coordinates": [ 105.777875, 21.071985 ] } },
{ "type": "Feature", "properties": { "record": 35, "time": "1900-01-01T04:05:40", "latitude": 21.072035, "longitude": 105.777925, "satellites": 7, "altitude_m": 15.0 }, "geometry": { "type": "Point", "coordinates": [ 105.777925, 21.072035 ] } },
{ "type": "Feature", "properties": { "record": 36, "time": "1900-01-01T04:35:50", "latitude": 21.078085, "longitude": 105.77776666666665, "satellites": 10, "altitude_m": 15.0 }, "geometry": { "type": "Point", "coordinates": [ 105.777766666666651, 21.078085 ] } },
{ "type": "Feature", "properties": { "record": 37, "time": "1900-01-01T04:36:00", "latitude": 21.078135, "longitude": 105.77781666666667, "satellites": 10, "altitude_m": 15.0 }, "geometry": { "type": "Point", "coordinates": [ 105.777816666666666, 21.078135 ] } },
{ "type": "Feature", "properties": { "record": 38, "time": "1900-01-01T04:36:10", "latitude": 21.078185, "longitude": 105.77786666666667, "satellites": 10, "altitude_m": 15.0 }, "geometry": { "type": "Point", "coordinates": [ 105.777866666666668, 21.078185 ] } },
{ "type": "Feature", "properties": { "record": 39, "time": "1900-01-01T04:36:20", "latitude": 21.078235, "longitude": 105.77791666666666, "satellites": 10, "altitude_m": 15.0 }, "geometry": { "type": "Point", "coordinates": [ 105.777916666666655, 21.078235 ] } },
{ "type": "Feature", "properties": { "record": 40, "time": "1900-01-01T04:36:30", "latitude": 21.078285, "longitude": 105.77796666666667, "satellites": 10, "altitude_m": 15.0 }, "geometry": { "type": "Point", "coordinates": [ 105.777966666666671, 21.078285 ] } },
{ "type": "Feature", "properties": { "record": 41, "time": "1900-01-01T05:06:40", "latitude": 21.080458333333333, "longitude": 105.76585333333333, "satellites": 10, "altitude_m": 15.0 }, "geometry": { "type": "Point", "coordinates": [ 105.765853333333325, 21.080458333333333 ] } },
{ "type": "Feature", "properties": { "record": 42, "time": "1900-01-01T05:06:50", "latitude": 21.080508333333334, "longitude": 105.76590333333334, "satellites": 10, "altitude_m": 15.0 }, "geometry": { "type": "Point", "coordinates": [ 105.765903333333341, 21.080508333333334 ] } },
{ "type": "Feature", "properties": { "record": 43, "time": "1900-01-01T05:07:00", "latitude": 21.080558333333336, "longitude": 105.76595333333334, "satellites": 10, "altitude_m": 15.0 }, "geometry": { "type": "Point", "coordinates": [ 105.765953333333343, 21.080558333333336 ] } },
{ "type": "Feature", "properties": { "record": 44, "time": "1900-01-01T05:07:10", "latitude": 21.080608333333331, "longitude": 105.76600333333333, "satellites": 10, "altitude_m": 15.0 }, "geometry": { "type": "Point", "coordinates": [ 105.76600333333333, 21.080608333333331 ] } },
{ "type": "Feature", "properties": { "record": 45, "time": "1900-01-01T05:07:20", "latitude": 21.080658333333336, "longitude": 105.76605333333333, "satellites": 10, "altitude_m": 15.0 }, "geometry": { "type": "Point", "coordinates": [ 105.766053333333332, 21.080658333333336 ] } },
{ "type": "Feature", "properties": { "record": 46, "time": "1900-01-01T05:37:30", "latitude": 21.07579333333333, "longitude": 105.767, "satellites": 11, "altitude_m": 15.0 }, "geometry": { "type": "Point", "coordinates": [ 105.767, 21.07579333333333 ] } },
{ "type": "Feature", "properties": { "record": 47, "time": "1900-01-01T05:37:40", "latitude": 21.075843333333335, "longitude": 105.76705, "satellites": 11, "altitude_m": 15.0 }, "geometry": { "type": "Point", "coordinates": [ 105.76705, 21.075843333333335 ] } },
{ "type": "Feature", "properties": { "record": 48, "time": "1900-01-01T05:37:50", "latitude": 21.075893333333337, "longitude": 105.7671, "satellites": 11, "altitude_m": 15.0 }, "geometry": { "type": "Point", "coordinates": [ 105.7671, 21.075893333333337 ] } },
{ "type": "Feature", "properties": { "record": 49, "time": "1900-01-01T05:38:00", "latitude": 21.075943333333331, "longitude": 105.76715, "satellites": 11, "altitude_m": 15.0 }, "geometry": { "type": "Point", "coordinates": [ 105.76715, 21.075943333333331 ] } },
{ "type": "Feature", "properties": { "record": 50, "time": "1900-01-01T05:38:10", "latitude": 21.075993333333333, "longitude": 105.7672, "satellites": 11, "altitude_m": 15.0 }, "geometry": { "type": "Point", "coordinates": [ 105.7672, 21.075993333333333 ] } },
{ "type": "Feature", "properties": { "record": 51, "time": "1900-01-01T06:08:20", "latitude": 21.0792, "longitude": 105.76448666666666, "satellites": 12, "altitude_m": 15.0 }, "geometry": { "type": "Point", "coordinates": [ 105.764486666666656, 21.0792 ] } },
{ "type": "Feature", "properties": { "record": 52, "time": "1900-01-01T06:08:30", "latitude": 21.07925, "longitude": 105.76453666666666, "satellites": 12, "altitude_m": 15.0 }, "geometry": { "type": "Point", "coordinates": [ 105.764536666666658, 21.07925 ] } },
{ "type": "Feature", "properties": { "record": 53, "time": "1900-01-01T06:08:40", "latitude": 21.0793, "longitude": 105.76458666666667, "satellites": 12, "altitude_m": 15.0 }, "geometry": { "type": "Point", "coordinates": [ 105.764586666666673, 21.0793 ] } },
{ "type": "Feature", "properties": { "record": 54, "time": "1900-01-01T06:08:50", "latitude": 21.07935, "longitude": 105.76463666666665, "satellites": 12, "altitude_m": 15.0 }, "geometry": { "type": "Point", "coordinates": [ 105.764636666666647, 21.07935 ] } },
{ "type": "Feature", "properties": { "record": 55, "time": "1900-01-01T06:09:00", "latitude": 21.0794, "longitude": 105.76468666666666, "satellites": 12, "altitude_m": 15.0 }, "geometry": { "type": "Point", "coordinates": [ 105.764686666666663, 21.0794 ] } },
{ "type": "Feature", "properties": { "record": 56, "time": "1900-01-01T06:39:10", "latitude": 21.07505, "longitude": 105.77645166666667, "satellites": 10, "altitude_m": 15.0 }, "geometry": { "type": "Point", "coordinates": [ 105.776451666666674, 21.07505 ] } },
{ "type": "Feature", "properties": { "record": 57, "time": "1900-01-01T06:39:20", "latitude": 21.0751, "longitude": 105.77650166666666, "satellites": 10, "altitude_m": 15.0 }, "geometry": { "type": "Point", "coordinates": [ 105.776501666666661, 21.0751 ] } },
{ "type": "Feature", "properties": { "record": 58, "time": "1900-01-01T06:39:30", "latitude": 21.07515, "longitude": 105.77655166666666, "satellites": 10, "altitude_m": 15.0 }, "geometry": { "type": "Point", "coordinates": [ 105.776551666666663, 21.07515 ] } },
{ "type": "Feature", "properties": { "record": 59, "time": "1900-01-01T06:39:40", "latitude": 21.0752, "longitude": 105.77660166666668, "satellites": 10, "altitude_m": 15.0 }, "geometry": { "type": "Point", "coordinates": [ 105.776601666666679, 21.0752 ] } },
{ "type": "Feature", "properties": { "record": 60, "time": "1900-01-01T06:39:50", "latitude": 21.07525, "longitude": 105.77665166666665, "satellites": 10, "altitude_m": 15.0 }, "geometry": { "type": "Point", "coordinates": [ 105.776651666666652, 21.07525 ] } },
{ "type": "Feature", "properties": { "record": 61, "time": "1900-01-01T07:10:00", "latitude": 21.073958333333334, "longitude": 105.76971166666665, "satellites": 10, "altitude_m": 15.0 }, "geometry": { "type": "Point", "coordinates": [ 105.769711666666652, 21.073958333333334 ] } },
{ "type": "Feature", "properties": { "record": 62, "time": "1900-01-01T07:10:10", "latitude": 21.074008333333335, "longitude": 105.76976166666667, "satellites": 10, "altitude_m": 15.0 }, "geometry": { "type": "Point", "coordinates": [ 105.769761666666668, 21.074008333333335 ] } },
{ "type": "Feature", "properties": { "record": 63, "time": "1900-01-01T07:10:20", "latitude": 21.07405833333333, "longitude": 105.76981166666668, "satellites": 10, "altitude_m": 15.0 }, "geometry": { "type": "Point", "coordinates": [ 105.769811666666683, 21.07405833333333 ] } },
{ "type": "Feature", "properties": { "record": 64, "time": "1900-01-01T07:10:30", "latitude": 21.074108333333335, "longitude": 105.76986166666666, "satellites": 10, "altitude_m": 15.0 }, "geometry": { "type": "Point", "coordinates": [ 105.769861666666657, 21.074108333333335 ] } },
{ "type": "Feature", "properties": { "record": 65, "time": "1900-01-01T07:10:40", "latitude": 21.074158333333337, "longitude": 105.76991166666667, "satellites": 10, "altitude_m": 15.0 }, "geometry": { "type": "Point", "coordinates": [ 105.769911666666673, 21.074158333333337 ] } },
{ "type": "Feature", "properties": { "record": 66, "time": "1900-01-01T07:40:50", "latitude": 21.071801666666669, "longitude": 105.76782, "satellites": 11, "altitude_m": 15.0 }, "geometry": { "type": "Point", "coordinates": [ 105.76782, 21.071801666666669 ] } },
{ "type": "Feature", "properties": { "record": 67, "time": "1900-01-01T07:41:00", "latitude": 21.071851666666664, "longitude": 105.76787, "satellites": 11, "altitude_m": 15.0 }, "geometry": { "type": "Point", "coordinates": [ 105.76787, 21.071851666666664 ] } },
{ "type": "Feature", "properties": { "record": 68, "time": "1900-01-01T07:41:10", "latitude": 21.071901666666669, "longitude": 105.76792, "satellites": 11, "altitude_m": 15.0 }, "geometry": { "type": "Point", "coordinates": [ 105.76792, 21.071901666666669 ] } },
{ "type": "Feature", "properties": { "record": 69, "time": "1900-01-01T07:41:20", "latitude": 21.071951666666671, "longitude": 105.76797, "satellites": 11, "altitude_m": 15.0 }, "geometry": { "type": "Point", "coordinates": [ 105.76797, 21.071951666666671 ] } },
{ "type": "Feature", "properties": { "record": 70, "time": "1900-01-01T07:41:30", "latitude": 21.072001666666665, "longitude": 105.76802, "satellites": 11, "altitude_m": 15.0 }, "geometry": { "type": "Point", "coordinates": [ 105.76802, 21.072001666666665 ] } },
{ "type": "Feature", "properties": { "record": 71, "time": "1900-01-01T08:11:40", "latitude": 21.073991666666664, "longitude": 105.76528333333333, "satellites": 10, "altitude_m": 15.0 }, "geometry": { "type": "Point", "coordinates": [ 105.765283333333329, 21.073991666666664 ] } },
{ "type": "Feature", "properties": { "record": 72, "time": "1900-01-01T08:11:50", "latitude": 21.07404166666667, "longitude": 105.76533333333333, "satellites": 10, "altitude_m": 15.0 }, "geometry": { "type": "Point", "coordinates": [ 105.765333333333331, 21.07404166666667 ] } },
{ "type": "Feature", "properties": { "record": 73, "time": "1900-01-01T08:12:00", "latitude": 21.074091666666664, "longitude": 105.76538333333335, "satellites": 10, "altitude_m": 15.0 }, "geometry": { "type": "Point", "coordinates": [ 105.765383333333347, 21.074091666666664 ] } },
{ "type": "Feature", "properties": { "record": 74, "time": "1900-01-01T08:12:10", "latitude": 21.074141666666666, "longitude": 105.76543333333332, "satellites": 10, "altitude_m": 15.0 }, "geometry": { "type": "Point", "coordinates": [ 105.76543333333332, 21.074141666666666 ] } },
{ "type": "Feature", "properties": { "record": 75, "time": "1900-01-01T08:12:20", "latitude": 21.074191666666668, "longitude": 105.76548333333334, "satellites": 10, "altitude_m": 15.0 }, "geometry": { "type": "Point", "coordinates": [ 105.765483333333336, 21.074191666666668 ] } },
{ "type": "Feature", "properties": { "record": 76, "time": "1900-01-01T08:42:30", "latitude": 21.074646666666663, "longitude": 105.77146333333333, "satellites": 7, "altitude_m": 15.0 }, "geometry": { "type": "Point", "coordinates": [ 105.77146333333333, 21.074646666666663 ] } },
{ "type": "Feature", "properties": { "record": 77, "time": "1900-01-01T08:42:40", "latitude": 21.074696666666668, "longitude": 105.77151333333335, "satellites": 7, "altitude_m": 15.0 }, "geometry": { "type": "Point", "coordinates": [ 105.771513333333345, 21.074696666666668 ] } },
{ "type": "Feature", "properties": { "record": 78, "time": "1900-01-01T08:42:50", "latitude": 21.07474666666667, "longitude": 105.77156333333332, "satellites": 7, "altitude_m": 15.0 }, "geometry": { "type": "Point", "coordinates": [ 105.771563333333319, 21.07474666666667 ] } },
{ "type": "Feature", "properties": { "record": 79, "time": "1900-01-01T08:43:00", "latitude": 21.074796666666664, "longitude": 105.77161333333333, "satellites": 7, "altitude_m": 15.0 }, "geometry": { "type": "Point", "coordinates": [ 105.771613333333335, 21.074796666666664 ] } },
{ "type": "Feature", "properties": { "record": 80, "time": "1900-01-01T08:43:10", "latitude": 21.074846666666666, "longitude": 105.77166333333335, "satellites": 7, "altitude_m": 15.0 }, "geometry": { "type": "Point", "coordinates": [ 105.77166333333335, 21.074846666666666 ] } },
{ "type": "Feature", "properties": { "record": 81, "time": "1900-01-01T09:13:20", "latitude": 21.077631666666669, "longitude": 105.77574666666666, "satellites": 12, "altitude_m": 15.0 }, "geometry": { "type": "Point", "coordinates": [ 105.775746666666663, 21.077631666666669 ] } },
{ "type": "Feature", "properties": { "record": 82, "time": "1900-01-01T09:13:30", "latitude": 21.077681666666663, "longitude": 105.77579666666666, "satellites": 12, "altitude_m": 15.0 }, "geometry": { "type": "Point", "coordinates": [ 105.775796666666665, 21.077681666666663 ] } },
{ "type": "Feature", "properties": { "record": 83, "time": "1900-01-01T09:13:40", "latitude": 21.077731666666669, "longitude": 105.77584666666668, "satellites": 12, "altitude_m": 15.0 }, "geometry": { "type": "Point", "coordinates": [ 105.775846666666681, 21.077731666666669 ] } },
{ "type": "Feature", "properties": { "record": 84, "time": "1900-01-01T09:13:50", "latitude": 21.07778166666667, "longitude": 105.77589666666667, "satellites": 12, "altitude_m": 15.0 }, "geometry": { "type": "Point", "coordinates": [ 105.775896666666668, 21.07778166666667 ] } },
{ "type": "Feature", "properties": { "record": 85, "time": "1900-01-01T09:14:00", "latitude": 21.077831666666665, "longitude": 105.77594666666667, "satellites": 12, "altitude_m": 15.0 }, "geometry": { "type": "Point", "coordinates": [ 105.77594666666667, 21.077831666666665 ] } },
{ "type": "Feature", "properties": { "record": 86, "time": "1900-01-01T09:44:10", "latitude": 21.074601666666663, "longitude": 105.77982333333333, "satellites": 10, "altitude_m": 15.0 }, "geometry": { "type": "Point", "coordinates": [ 105.779823333333326, 21.074601666666663 ] } },
{ "type": "Feature", "properties": { "record": 87, "time": "1900-01-01T09:44:20", "latitude": 21.074651666666668, "longitude": 105.77987333333334, "satellites": 10, "altitude_m": 15.0 }, "geometry": { "type": "Point", "coordinates": [ 105.779873333333342, 21.074651666666668 ] } },
{ "type": "Feature", "properties": { "record": 88, "time": "1900-01-01T09:44:30", "latitude": 21.07470166666667, "longitude": 105.77992333333334, "satellites": 10, "altitude_m": 15.0 }, "geometry": { "type": "Point", "coordinates": [ 105.779923333333343, 21.07470166666667 ] } },
{ "type": "Feature", "properties": { "record": 89, "time": "1900-01-01T09:44:40", "latitude": 21.074751666666664, "longitude": 105.77997333333333, "satellites": 10, "altitude_m": 15.0 }, "geometry": { "type": "Point", "coordinates": [ 105.779973333333331, 21.074751666666664 ] } },
{ "type": "Feature", "properties": { "record": 90, "time": "1900-01-01T09:44:50", "latitude": 21.074801666666666, "longitude": 105.78002333333333, "satellites": 10, "altitude_m": 15.0 }, "geometry": { "type": "Point", "coordinates": [ 105.780023333333332, 21.074801666666666 ] } },
{ "type": "Feature", "properties": { "record": 91, "time": "1900-01-01T10:15:00", "latitude": 21.064923333333333, "longitude": 105.76947833333334, "satellites": 8, "altitude_m": 15.0 }, "geometry": { "type": "Point", "coordinates": [ 105.769478333333339, 21.064923333333333 ] } },
{ "type": "Feature", "properties": { "record": 92, "time": "1900-01-01T10:15:10", "latitude": 21.064973333333334, "longitude": 105.76952833333334, "satellites": 8, "altitude_m": 15.0 }, "geometry": { "type": "Point", "coordinates": [ 105.769528333333341, 21.064973333333334 ] } },
{ "type": "Feature", "properties": { "record": 93, "time": "1900-01-01T10:15:20", "latitude": 21.065023333333336, "longitude": 105.76957833333333, "satellites": 8, "altitude_m": 15.0 }, "geometry": { "type": "Point", "coordinates": [ 105.769578333333328, 21.065023333333336 ] } },
{ "type": "Feature", "properties": { "record": 94, "time": "1900-01-01T10:15:30", "latitude": 21.065073333333331, "longitude": 105.76962833333333, "satellites": 8, "altitude_m": 15.0 }, "geometry": { "type": "Point", "coordinates": [ 105.76962833333333, 21.065073333333331 ] } },
{ "type": "Feature", "properties": { "record": 95, "time": "1900-01-01T10:15:40", "latitude": 21.065123333333336, "longitude": 105.76967833333335, "satellites": 8, "altitude_m": 15.0 }, "geometry": { "type": "Point", "coordinates": [ 105.769678333333346, 21.065123333333336 ] } },
{ "type": "Feature", "properties": { "record": 96, "time": "1900-01-01T10:45:50", "latitude": 21.069601666666667, "longitude": 105.77924666666668, "satellites": 10, "altitude_m": 15.0 }, "geometry": { "type": "Point", "coordinates": [ 105.77924666666668, 21.069601666666667 ] } },
{ "type": "Feature", "properties": { "record": 97, "time": "1900-01-01T10:46:00", "latitude": 21.069651666666665, "longitude": 105.77929666666665, "satellites": 10, "altitude_m": 15.0 }, "geometry": { "type": "Point", "coordinates": [ 105.779296666666653, 21.069651666666665 ] } },
{ "type": "Feature", "properties": { "record": 98, "time": "1900-01-01T10:46:10", "latitude": 21.069701666666667, "longitude": 105.77934666666667, "satellites": 10, "altitude_m": 15.0 }, "geometry": { "type": "Point", "coordinates": [ 105.779346666666669, 21.069701666666667 ] } },
{ "type": "Feature", "properties": { "record": 99, "time": "1900-01-01T10:46:20", "latitude": 21.069751666666669, "longitude": 105.77939666666667, "satellites": 10, "altitude_m": 15.0 }, "geometry": { "type": "Point", "coordinates": [ 105.779396666666671, 21.069751666666669 ] } },
{ "type": "Feature", "properties": { "record": 100, "time": "1900-01-01T10:46:30", "latitude": 21.069801666666663, "longitude": 105.77944666666666, "satellites": 10, "altitude_m": 15.0 }, "geometry": { "type": "Point", "coordinates": [ 105.779446666666658, 21.069801666666663 ] } }
]
}
